{"type": "FeatureCollection", "features": [ {"type": "Feature", "properties": {"norad_id": 35585, "name": "COSMOS 2251 DEB", "group": "cosmos-2251-debris", "lat": 2.7290927563084195, "lon": 4.702892191500028, "alt_km": 956.0541646586989, "timestamp": "2025-12-03T10:52:57.852717+00:00", "meta": {"OBJECT_NAME": "COSMOS 2251 DEB", "OBJECT_ID": "1993-036AMC", "EPOCH": "2025-12-02T12:56:40.811136", "MEAN_MOTION": 13.75197617, "ECCENTRICITY": 0.03106301, "INCLINATION": 73.9718, "RA_OF_ASC_NODE": 5.4431, "ARG_OF_PERICENTER": 279.6941, "MEAN_ANOMALY": 236.0495, "EPHEMERIS_TYPE": 0, "CLASSIFICATION_TYPE": "U", "NORAD_CAT_ID": 35585, "ELEMENT_SET_NO": 999, "REV_AT_EPOCH": 63923, "BSTAR": 0.0014709155, "MEAN_MOTION_DOT": 1.977e-05, "MEAN_MOTION_DDOT": 0}, "tle": {"line1": "1 35585U 93036AMC 25336.53936124  .00001977  00000+0  14709-2 0  9995", "line2": "2 35585  73.9718   5.4431 0310630 279.6941 236.0495 13.75197617639230"}}, "geometry": {"type": "Point", "coordinates": [4.702892191500028, 2.7290927563084195]}}, {"type": "Feature", "properties": {"norad_id": 35586, "name": "COSMOS 2251 DEB", "group": "cosmos-2251-debris", "lat": -60.39227123837159, "lon": 167.63522046016786, "alt_km": 870.7760871514402, "timestamp": "2025-12-03T10:52:57.852728+00:00", "meta": {"OBJECT_NAME": "COSMOS 2251 DEB", "OBJECT_ID": "1993-036AMD", "EPOCH": "2025-12-02T16:49:03.133344", "MEAN_MOTION": 13.52074918, "ECCENTRICITY": 0.0405115, "INCLINATION": 74.0205, "RA_OF_ASC_NODE": 318.5607, "ARG_OF_PERICENTER": 196.0051, "MEAN_ANOMALY": 342.7339, "EPHEMERIS_TYPE": 0, "CLASSIFICATION_TYPE": "U", "NORAD_CAT_ID": 35586, "ELEMENT_SET_NO": 999, "REV_AT_EPOCH": 60246, "BSTAR": 0.00045412, "MEAN_MOTION_DOT": 4.79e-06, "MEAN_MOTION_DDOT": 0}, "tle": {"line1": "1 35586U 93036AMD 25336.70073071  .00000479  00000+0  45412-3 0  9990", "line2": "2 35586  74.0205 318.5607 0405115 196.0051 342.7339 13.52074918602464"}}, "geometry": {"type": "Point", "coordinates": [167.63522046016786, -60.39227123837159]}}, {"type": "Feature", "properties": {"norad_id": 35587, "name": "COSMOS 2251 DEB", "group": "cosmos-2251-debris", "lat": 71.8124078336055, "lon": 137.32960888807708, "alt_km": 721.1297927067508, "timestamp": "2025-12-03T10:52:57.852738+00:00", "meta": {"OBJECT_NAME": "COSMOS 2251 DEB", "OBJECT_ID": "1993-036AME", "EPOCH": "2025-12-02T13:17:52.139616", "MEAN_MOTION": 14.71455583, "ECCENTRICITY": 0.01027177, "INCLINATION": 74.0049, "RA_OF_ASC_NODE": 78.2618, "ARG_OF_PERICENTER": 268.1186, "MEAN_ANOMALY": 90.8219, "EPHEMERIS_TYPE": 0, "CLASSIFICATION_TYPE": "U", "NORAD_CAT_ID": 35587, "ELEMENT_SET_NO": 999, "REV_AT_EPOCH": 66196, "BSTAR": 0.00042147374, "MEAN_MOTION_DOT": 2.801e-05, "MEAN_MOTION_DDOT": 0}, "tle": {"line1": "1 35587U 93036AME 25336.55407569  .00002801  00000+0  42147-3 0  9990", "line2": "2 35587  74.0049  78.2618 0102717 268.1186  90.8219 14.71455583661966"}}, "geometry": {"type": "Point", "coordinates": [137.32960888807708, 71.8124078336055]}}, {"type": "Feature", "properties": {"norad_id": 35593, "name": "COSMOS 2251 DEB", "group": "cosmos-2251-debris", "lat": -50.27583919431389, "lon": -74.91813868611807, "alt_km": 738.1405721080473, "timestamp": "2025-12-03T10:52:57.852749+00:00", "meta": {"OBJECT_NAME": "COSMOS 2251 DEB", "OBJECT_ID": "1993-036AML", "EPOCH": "2025-12-02T08:10:41.646720", "MEAN_MOTION": 14.25498697, "ECCENTRICITY": 0.01053488, "INCLINATION": 74.0851, "RA_OF_ASC_NODE": 307.1662, "ARG_OF_PERICENTER": 315.9582, "MEAN_ANOMALY": 43.3207, "EPHEMERIS_TYPE": 0, "CLASSIFICATION_TYPE": "U", "NORAD_CAT_ID": 35593, "ELEMENT_SET_NO": 999, "REV_AT_EPOCH": 84917, "BSTAR": 0.0018161686, "MEAN_MOTION_DOT": 4.526e-05, "MEAN_MOTION_DDOT": 0}, "tle": {"line1": "1 35593U 93036AML 25336.34075980  .00004526  00000+0  18162-2 0  9997", "line2": "2 35593  74.0851 307.1662 0105348 315.9582  43.3207 14.25498697849174"}}, "geometry": {"type": "Point", "coordinates": [-74.91813868611807, -50.27583919431389]}}, {"type": "Feature", "properties": {"norad_id": 35594, "name": "COSMOS 2251 DEB", "group": "cosmos-2251-debris", "lat": -24.792132986207708, "lon": 117.59838667930907, "alt_km": 614.2740889162569, "timestamp": "2025-12-03T10:52:57.852759+00:00", "meta": {"OBJECT_NAME": "COSMOS 2251 DEB", "OBJECT_ID": "1993-036AMM", "EPOCH": "2025-12-01T02:30:04.449024", "MEAN_MOTION": 14.8736155, "ECCENTRICITY": 0.00313469, "INCLINATION": 73.8065, "RA_OF_ASC_NODE": 130.0573, "ARG_OF_PERICENTER": 241.1394, "MEAN_ANOMALY": 118.6638, "EPHEMERIS_TYPE": 0, "CLASSIFICATION_TYPE": "U", "NORAD_CAT_ID": 35594, "ELEMENT_SET_NO": 999, "REV_AT_EPOCH": 88012, "BSTAR": 0.00176297, "MEAN_MOTION_DOT": 0.00016075, "MEAN_MOTION_DDOT": 0}, "tle": {"line1": "1 35594U 93036AMM 25335.10421816  .00016075  00000+0  17630-2 0  9995", "line2": "2 35594  73.8065 130.0573 0031346 241.1394 118.6638 14.87361550880129"}}, "geometry": {"type": "Point", "coordinates": [117.59838667930907, -24.792132986207708]}}, {"type": "Feature", "properties": {"norad_id": 35602, "name": "COSMOS 2251 DEB", "group": "cosmos-2251-debris", "lat": -46.48852364731618, "lon": -175.42260435988845, "alt_km": 421.43126049830425, "timestamp": "2025-12-03T10:52:57.852770+00:00", "meta": {"OBJECT_NAME": "COSMOS 2251 DEB", "OBJECT_ID": "1993-036AMV", "EPOCH": "2025-12-03T02:23:02.143104", "MEAN_MOTION": 15.3457838, "ECCENTRICITY": 0.0090921, "INCLINATION": 73.9948, "RA_OF_ASC_NODE": 202.9376, "ARG_OF_PERICENTER": 270.9322, "MEAN_ANOMALY": 244.023, "EPHEMERIS_TYPE": 0, "CLASSIFICATION_TYPE": "U", "NORAD_CAT_ID": 35602, "ELEMENT_SET_NO": 999, "REV_AT_EPOCH": 89943, "BSTAR": 0.00060534, "MEAN_MOTION_DOT": 0.00023243, "MEAN_MOTION_DDOT": 0}, "tle": {"line1": "1 35602U 93036AMV 25337.09933036  .00023243  00000+0  60534-3 0  9994", "line2": "2 35602  73.9948 202.9376 0090921 270.9322 244.0230 15.34578380899435"}}, "geometry": {"type": "Point", "coordinates": [-175.42260435988845, -46.48852364731618]}}, {"type": "Feature", "properties": {"norad_id": 35605, "name": "COSMOS 2251 DEB", "group": "cosmos-2251-debris", "lat": 64.31301532959975, "lon": 139.65946344796313, "alt_km": 494.5926551066268, "timestamp": "2025-12-03T10:52:57.852780+00:00", "meta": {"OBJECT_NAME": "COSMOS 2251 DEB", "OBJECT_ID": "1993-036AMY", "EPOCH": "2025-11-25T09:05:01.395168", "MEAN_MOTION": 15.26251894, "ECCENTRICITY": 0.00343964, "INCLINATION": 73.8732, "RA_OF_ASC_NODE": 13.9291, "ARG_OF_PERICENTER": 311.4103, "MEAN_ANOMALY": 48.4141, "EPHEMERIS_TYPE": 0, "CLASSIFICATION_TYPE": "U", "NORAD_CAT_ID": 35605, "ELEMENT_SET_NO": 999, "REV_AT_EPOCH": 65706, "BSTAR": 0.0065174874, "MEAN_MOTION_DOT": 0.00175767, "MEAN_MOTION_DDOT": 0}, "tle": {"line1": "1 35605U 93036AMY 25329.37848837  .00175767  00000+0  65175-2 0  9997", "line2": "2 35605  73.8732  13.9291 0034396 311.4103  48.4141 15.26251894657063"}}, "geometry": {"type": "Point", "coordinates": [139.65946344796313, 64.31301532959975]}}, {"type": "Feature", "properties": {"norad_id": 35606, "name": "COSMOS 2251 DEB", "group": "cosmos-2251-debris", "lat": 23.34105044905253, "lon": 32.79999299542411, "alt_km": 1402.243644806881, "timestamp": "2025-12-03T10:52:57.852792+00:00", "meta": {"OBJECT_NAME": "COSMOS 2251 DEB", "OBJECT_ID": "1993-036AMZ", "EPOCH": "2025-12-02T20:25:55.310304", "MEAN_MOTION": 13.41183829, "ECCENTRICITY": 0.0457875, "INCLINATION": 73.8108, "RA_OF_ASC_NODE": 26.558, "ARG_OF_PERICENTER": 233.7227, "MEAN_ANOMALY": 122.0759, "EPHEMERIS_TYPE": 0, "CLASSIFICATION_TYPE": "U", "NORAD_CAT_ID": 35606, "ELEMENT_SET_NO": 999, "REV_AT_EPOCH": 60907, "BSTAR": 0.0016498, "MEAN_MOTION_DOT": 1.674e-05, "MEAN_MOTION_DDOT": 0}, "tle": {"line1": "1 35606U 93036AMZ 25336.85133461  .00001674  00000+0  16498-2 0  9998", "line2": "2 35606  73.8108  26.5580 0457875 233.7227 122.0759 13.41183829609075"}}, "geometry": {"type": "Point", "coordinates": [32.79999299542411, 23.34105044905253]}}, {"type": "Feature", "properties": {"norad_id": 35611, "name": "COSMOS 2251 DEB", "group": "cosmos-2251-debris", "lat": 68.79373303711715, "lon": -114.99834352521017, "alt_km": 661.5125628269261, "timestamp": "2025-12-03T10:52:57.852802+00:00", "meta": {"OBJECT_NAME": "COSMOS 2251 DEB", "OBJECT_ID": "1993-036ANE", "EPOCH": "2025-12-01T14:30:37.941120", "MEAN_MOTION": 14.72378528, "ECCENTRICITY": 0.00224128, "INCLINATION": 74.0218, "RA_OF_ASC_NODE": 201.0005, "ARG_OF_PERICENTER": 275.1179, "MEAN_ANOMALY": 84.7435, "EPHEMERIS_TYPE": 0, "CLASSIFICATION_TYPE": "U", "NORAD_CAT_ID": 35611, "ELEMENT_SET_NO": 999, "REV_AT_EPOCH": 87126, "BSTAR": 0.0019124254, "MEAN_MOTION_DOT": 0.00012147, "MEAN_MOTION_DDOT": 0}, "tle": {"line1": "1 35611U 93036ANE 25335.60460580  .00012147  00000+0  19124-2 0  9997", "line2": "2 35611  74.0218 201.0005 0022412 275.1179  84.7435 14.72378528871263"}}, "geometry": {"type": "Point", "coordinates": [-114.99834352521017, 68.79373303711715]}}, {"type": "Feature", "properties": {"norad_id": 35614, "name": "COSMOS 2251 DEB", "group": "cosmos-2251-debris", "lat": 24.89728836754193, "lon": -6.852806032351653, "alt_km": 724.0271514196747, "timestamp": "2025-12-03T10:52:57.852812+00:00", "meta": {"OBJECT_NAME": "COSMOS 2251 DEB", "OBJECT_ID": "1993-036ANH", "EPOCH": "2025-11-28T17:49:08.774688", "MEAN_MOTION": 14.66804035, "ECCENTRICITY": 0.0076739, "INCLINATION": 73.9598, "RA_OF_ASC_NODE": 354.6008, "ARG_OF_PERICENTER": 212.3283, "MEAN_ANOMALY": 147.3173, "EPHEMERIS_TYPE": 0, "CLASSIFICATION_TYPE": "U", "NORAD_CAT_ID": 35614, "ELEMENT_SET_NO": 999, "REV_AT_EPOCH": 87524, "BSTAR": 0.00086232481, "MEAN_MOTION_DOT": 4.997e-05, "MEAN_MOTION_DDOT": 0}, "tle": {"line1": "1 35614U 93036ANH 25332.74246267  .00004997  00000+0  86232-3 0  9995", "line2": "2 35614  73.9598 354.6008 0076739 212.3283 147.3173 14.66804035875240"}}, "geometry": {"type": "Point", "coordinates": [-6.852806032351653, 24.89728836754193]}}]}